{
  "type": "FeatureCollection",
  "features": [
    {
      "type": "Feature",
      "properties": {
        "norad_id": 66380,
        "name": "STARLINK-35139",
        "group": "last-30-days",
        "lat": -11.859155459883919,
        "lon": -91.40514579953332,
        "alt_km": 449.2874089043735,
        "timestamp": "2025-12-09T23:33:22.606306+00:00",
        "meta_object_name": "STARLINK-35139",
        "meta_object_id": "2025-257A",
        "meta_epoch": "2025-12-09T12:42:54.821088",
        "meta_mean_motion": 15.3961067,
        "meta_eccentricity": 7.358e-05,
        "meta_inclination": 53.1588,
        "meta_ra_of_asc_node": 279.7823,
        "meta_arg_of_pericenter": 64.5595,
        "meta_mean_anomaly": 295.5486,
        "meta_ephemeris_type": 0,
        "meta_classification_type": "U",
        "meta_norad_cat_id": 66380,
        "meta_element_set_no": 999,
        "meta_rev_at_epoch": 581,
        "meta_bstar": 0.0018317026,
        "meta_mean_motion_dot": 0.00073554,
        "meta_mean_motion_ddot": 0,
        "tle_line1": "1 66380U 25257A   25343.52980117  .00073554  00000+0  18317-2 0  9999",
        "tle_line2": "2 66380  53.1588 279.7823 0000735  64.5595 295.5486 15.39610670  5813"
      },
      "geometry": {
        "type": "Point",
        "coordinates": [
          -91.40514579953332,
          -11.859155459883919
        ]
      }
    },
    {
      "type": "Feature",
      "properties": {
        "norad_id": 66381,
        "name": "STARLINK-35158",
        "group": "last-30-days",
        "lat": -10.202890464127767,
        "lon": -90.10637637345657,
        "alt_km": 448.9124931995493,
        "timestamp": "2025-12-09T23:33:22.606374+00:00",
        "meta_object_name": "STARLINK-35158",
        "meta_object_id": "2025-257B",
        "meta_epoch": "2025-12-09T12:42:24.798816",
        "meta_mean_motion": 15.39713572,
        "meta_eccentricity": 0.00015452,
        "meta_inclination": 53.1589,
        "meta_ra_of_asc_node": 279.7799,
        "meta_arg_of_pericenter": 77.0925,
        "meta_mean_anomaly": 283.0252,
        "meta_ephemeris_type": 0,
        "meta_classification_type": "U",
        "meta_norad_cat_id": 66381,
        "meta_element_set_no": 999,
        "meta_rev_at_epoch": 587,
        "meta_bstar": 0.001765011,
        "meta_mean_motion_dot": 0.0007108,
        "meta_mean_motion_ddot": 0,
        "tle_line1": "1 66381U 25257B   25343.52945369  .00071080  00000+0  17650-2 0  9991",
        "tle_line2": "2 66381  53.1589 279.7799 0001545  77.0925 283.0252 15.39713572  5877"
      },
      "geometry": {
        "type": "Point",
        "coordinates": [
          -90.10637637345657,
          -10.202890464127767
        ]
      }
    },
    {
      "type": "Feature",
      "properties": {
        "norad_id": 66382,
        "name": "STARLINK-35639",
        "group": "last-30-days",
        "lat": 8.853407893272768,
        "lon": -75.69514675850905,
        "alt_km": 446.1962281221404,
        "timestamp": "2025-12-09T23:33:22.606397+00:00",
        "meta_object_name": "STARLINK-35639",
        "meta_object_id": "2025-257C",
        "meta_epoch": "2025-12-09T12:36:11.400480",
        "meta_mean_motion": 15.39659565,
        "meta_eccentricity": 0.00014158,
        "meta_inclination": 53.1613,
        "meta_ra_of_asc_node": 279.7502,
        "meta_arg_of_pericenter": 74.1332,
        "meta_mean_anomaly": 285.9828,
        "meta_ephemeris_type": 0,
        "meta_classification_type": "U",
        "meta_norad_cat_id": 66382,
        "meta_element_set_no": 999,
        "meta_rev_at_epoch": 587,
        "meta_bstar": 0.0016376906,
        "meta_mean_motion_dot": 0.0006576,
        "meta_mean_motion_ddot": 0,
        "tle_line1": "1 66382U 25257C   25343.52513195  .00065760  00000+0  16377-2 0  9993",
        "tle_line2": "2 66382  53.1613 279.7502 0001415  74.1332 285.9828 15.39659565  5875"
      },
      "geometry": {
        "type": "Point",
        "coordinates": [
          -75.69514675850905,
          8.853407893272768
        ]
      }
    },
    {
      "type": "Feature",
      "properties": {
        "norad_id": 66383,
        "name": "STARLINK-35690",
        "group": "last-30-days",
        "lat": 28.713543494956944,
        "lon": -58.20674739504964,
        "alt_km": 442.8994347525322,
        "timestamp": "2025-12-09T23:33:22.606415+00:00",
        "meta_object_name": "STARLINK-35690",
        "meta_object_id": "2025-257D",
        "meta_epoch": "2025-12-09T03:08:39.440256",
        "meta_mean_motion": 15.39621685,
        "meta_eccentricity": 0.00012366,
        "meta_inclination": 53.161,
        "meta_ra_of_asc_node": 281.5551,
        "meta_arg_of_pericenter": 87.6681,
        "meta_mean_anomaly": 272.4465,
        "meta_ephemeris_type": 0,
        "meta_classification_type": "U",
        "meta_norad_cat_id": 66383,
        "meta_element_set_no": 999,
        "meta_rev_at_epoch": 581,
        "meta_bstar": 0.0019585336,
        "meta_mean_motion_dot": 0.00078758,
        "meta_mean_motion_ddot": 0,
        "tle_line1": "1 66383U 25257D   25343.13101204  .00078758  00000+0  19585-2 0  9990",
        "tle_line2": "2 66383  53.1610 281.5551 0001236  87.6681 272.4465 15.39621685  5819"
      },
      "geometry": {
        "type": "Point",
        "coordinates": [
          -58.20674739504964,
          28.713543494956944
        ]
      }
    },
    {
      "type": "Feature",
      "properties": {
        "norad_id": 66384,
        "name": "STARLINK-35662",
        "group": "last-30-days",
        "lat": 30.09232242621539,
        "lon": -56.705807836179495,
        "alt_km": 442.7097424316198,
        "timestamp": "2025-12-09T23:33:22.606464+00:00",
        "meta_object_name": "STARLINK-35662",
        "meta_object_id": "2025-257E",
        "meta_epoch": "2025-12-09T03:08:10.703616",
        "meta_mean_motion": 15.39635056,
        "meta_eccentricity": 0.00010276,
        "meta_inclination": 53.1603,
        "meta_ra_of_asc_node": 281.5542,
        "meta_arg_of_pericenter": 91.0689,
        "meta_mean_anomaly": 269.0434,
        "meta_ephemeris_type": 0,
        "meta_classification_type": "U",
        "meta_norad_cat_id": 66384,
        "meta_element_set_no": 999,
        "meta_rev_at_epoch": 581,
        "meta_bstar": 0.0020942978,
        "meta_mean_motion_dot": 0.00084344,
        "meta_mean_motion_ddot": 0,
        "tle_line1": "1 66384U 25257E   25343.13067944  .00084344  00000+0  20943-2 0  9991",
        "tle_line2": "2 66384  53.1603 281.5542 0001027  91.0689 269.0434 15.39635056  5812"
      },
      "geometry": {
        "type": "Point",
        "coordinates": [
          -56.705807836179495,
          30.09232242621539
        ]
      }
    },
    {
      "type": "Feature",
      "properties": {
        "norad_id": 66385,
        "name": "STARLINK-35659",
        "group": "last-30-days",
        "lat": 10.332609821121777,
        "lon": -74.54687947618115,
        "alt_km": 446.19706991823114,
        "timestamp": "2025-12-09T23:33:22.606480+00:00",
        "meta_object_name": "STARLINK-35659",
        "meta_object_id": "2025-257F",
        "meta_epoch": "2025-12-09T12:35:42.762336",
        "meta_mean_motion": 15.39660087,
        "meta_eccentricity": 0.00015573,
        "meta_inclination": 53.1604,
        "meta_ra_of_asc_node": 279.7499,
        "meta_arg_of_pericenter": 95.6073,
        "meta_mean_anomaly": 264.511,
        "meta_ephemeris_type": 0,
        "meta_classification_type": "U",
        "meta_norad_cat_id": 66385,
        "meta_element_set_no": 999,
        "meta_rev_at_epoch": 587,
        "meta_bstar": 0.0024490739,
        "meta_mean_motion_dot": 0.00098973,
        "meta_mean_motion_ddot": 0,
        "tle_line1": "1 66385U 25257F   25343.52480049  .00098973  00000+0  24491-2 0  9995",
        "tle_line2": "2 66385  53.1604 279.7499 0001557  95.6073 264.5110 15.39660087  5878"
      },
      "geometry": {
        "type": "Point",
        "coordinates": [
          -74.54687947618115,
          10.332609821121777
        ]
      }
    },
    {
      "type": "Feature",
      "properties": {
        "norad_id": 66386,
        "name": "STARLINK-35651",
        "group": "last-30-days",
        "lat": 45.31972898568654,
        "lon": -33.204301893300595,
        "alt_km": 440.2242277926898,
        "timestamp": "2025-12-09T23:33:22.606495+00:00",
        "meta_object_name": "STARLINK-35651",
        "meta_object_id": "2025-257G",
        "meta_epoch": "2025-12-09T03:01:58.104480",
        "meta_mean_motion": 15.39623506,
        "meta_eccentricity": 0.00010349,
        "meta_inclination": 53.16,
        "meta_ra_of_asc_node": 281.527,
        "meta_arg_of_pericenter": 97.4058,
        "meta_mean_anomaly": 262.7065,
        "meta_ephemeris_type": 0,
        "meta_classification_type": "U",
        "meta_norad_cat_id": 66386,
        "meta_element_set_no": 999,
        "meta_rev_at_epoch": 581,
        "meta_bstar": 0.0019748183,
        "meta_mean_motion_dot": 0.00079427,
        "meta_mean_motion_ddot": 0,
        "tle_line1": "1 66386U 25257G   25343.12636695  .00079427  00000+0  19748-2 0  9994",
        "tle_line2": "2 66386  53.1600 281.5270 0001034  97.4058 262.7065 15.39623506  5814"
      },
      "geometry": {
        "type": "Point",
        "coordinates": [
          -33.204301893300595,
          45.31972898568654
        ]
      }
    }
  ]
}